[
    {
        "Altitude(m)": 622205.8285258029,
        "Argument of Periapsis(deg)": 0.0,
        "Eccentricity": 0.0,
        "Inclination(deg)": 60.0,
        "Latitude(deg)": -52.16232787223219,
        "Longitude(deg)": 97.70040795424671,
        "Mean Anomaly(deg)": -114.5455,
        "RAAN(deg)": 330.0,
        "Satellite Name": "Test1 1467",
        "Satellite Number": 1467,
        "Semi-Major Axis(m)": 6980739.136638005,
        "Time(s)": 0
    },
    {
        "Altitude(m)": 622344.7351453104,
        "Argument of Periapsis(deg)": 0.00010418945913296404,
        "Eccentricity": 0.0,
        "Inclination(deg)": 60.0,
        "Latitude(deg)": -52.51990734096437,
        "Longitude(deg)": 98.48161859040802,
        "Mean Anomaly(deg)": -113.92539385453817,
        "RAAN(deg)": 329.9995799508602,
        "Satellite Name": "Test1 1467",
        "Satellite Number": 1467,
        "Semi-Major Axis(m)": 6980739.136638005,
        "Time(s)": 10
    }
]